ONEWEB-0395             
1 50475U 21132G   25261.01647437  .00000557  00000+0  15347-2 0  9996
2 50475  87.8774  75.3005 0001888  95.7659 264.3684 13.11418123180041
ONEWEB-0396             
1 50476U 21132H   25261.30160276 -.00000016  00000+0 -73541-4 0  9994
2 50476  87.9197  29.4381 0001891  95.4878 264.6470 13.18685643185808
ONEWEB-0397             
1 50477U 21132J   25260.86120202 -.00000006  00000+0 -48096-4 0  9996
2 50477  87.9194  29.5265 0001781  91.6209 268.5127 13.18685601185729
ONEWEB-0398             
1 50478U 21132K   25260.98423666 -.00000418  00000+0 -12151-2 0  9998
2 50478  87.8784  75.2730 0001774 104.7170 255.4155 13.11419086179931
ONEWEB-0399             
1 50479U 21132L   25261.04697565 -.00000429  00000+0 -12470-2 0  9994
2 50479  87.8776  75.2814 0002143  80.9794 279.1577 13.11414672179931
ONEWEB-0400             
1 50480U 21132M   25261.29501237  .00000103  00000+0  22933-3 0  9996
2 50480  87.9193  29.4305 0001787 105.2813 254.8516 13.18686359185771
ONEWEB-0401             
1 50481U 21132N   25260.88429838 -.00000065  00000+0 -19750-3 0  9999
2 50481  87.9195  29.5086 0001631  92.5478 267.5841 13.18686577185723
ONEWEB-0402             
1 50482U 21132P   25260.92389064  .00000005  00000+0 -20370-4 0  9995
2 50482  87.9195  29.4941 0001319  80.6069 279.5212 13.18686635185753
